[Satellite]
VERSION=1.1
NAME=STARLINK-4732
NICKNAME=STARLINK-4732
TLE1=1 53870U 22114BE  22291.00001157  .00003478  00000+0  29184-4 0  9992
TLE2=2 53870  53.2142 115.4467 0001127  80.4879 195.9006 15.73199589  5133
STATUS=0
